NORAD_CAT_ID,OBJECT_NAME,OBJECT_TYPE,EPOCH,MEAN_MOTION,ECCENTRICITY,INCLINATION,RA_OF_ASC_NODE,ARG_OF_PERICENTER,MEAN_ANOMALY,BSTAR,MEAN_MOTION_DOT,MEAN_MOTION_DDOT,TLE_LINE0,TLE_LINE1,TLE_LINE2,SEMIMAJOR_AXIS,PERIOD,APOGEE,PERIGEE,DECAYED
52105.0,STARLINK-3706,PAYLOAD,2022-12-27 11:41:44,15.088738199999998,0.0002363,53.2181,283.3816,34.7074,325.4072,0.0010103,0.00015843,0.0,0 STARLINK-3706,1 52105U 22029T   22361.48732470  .00015843  00000-0  10103-2 0  9995,2 52105  53.2181 283.3816 0002363  34.7074 325.4072 15.08873820 44424,6917.776999999999,95.435,541.2769999999998,538.007,0.0
52105.0,STARLINK-3706,PAYLOAD,2022-12-27 19:38:40,15.08877532,0.0002344,53.2175,281.8956,37.1587,322.9567,0.0007671,0.00011954,0.0,0 STARLINK-3706,1 52105U 22029T   22361.81851857  .00011954  00000-0  76710-3 0  9999,2 52105  53.2175 281.8956 0002344  37.1587 322.9567 15.08877532 44470,6917.766,95.435,541.252,538.009,0.0
52105.0,STARLINK-3706,PAYLOAD,2022-12-28 00:24:49,15.08865067,0.0002316,53.2179,281.0035,33.8994,326.2145,0.00021551,3.146e-05,0.0,0 STARLINK-3706,1 52105U 22029T   22362.01723630  .00003146  00000-0  21551-3 0  9996,2 52105  53.2179 281.0035 0002316  33.8994 326.2145 15.08865067 44501,6917.804,95.436,541.271,538.067,0.0
52105.0,STARLINK-3706,PAYLOAD,2022-12-29 03:26:23,15.08827789,0.0002728999999999,53.2177,275.9483,30.2983,329.8166,-0.0004225999999999,-7.006e-05,0.0,0 STARLINK-3706,1 52105U 22029T   22363.14332539 -.00007006  00000-0 -42260-3 0  9996,2 52105  53.2177 275.9483 0002729  30.2983 329.8166 15.08827789 44674,6917.918000000002,95.438,541.6709999999998,537.895,0.0
52105.0,STARLINK-3706,PAYLOAD,2022-12-29 11:23:19,15.0881826,0.0002453,53.2174,274.4606,36.2412,323.8746,-0.00044389,-7.342e-05,0.0,0 STARLINK-3706,1 52105U 22029T   22363.47453626 -.00007342  00000-0 -44389-3 0  9990,2 52105  53.2174 274.4606 0002453  36.2412 323.8746 15.08818260 44727,6917.946999999999,95.439,541.509,538.115,0.0
52105.0,STARLINK-3706,PAYLOAD,2022-12-30 03:17:11,15.08829972,0.0002435999999999,53.2174,271.4871,28.1344,331.978,-0.00014698,-2.626e-05,0.0,0 STARLINK-3706,1 52105U 22029T   22364.13694391 -.00002626  00000-0 -14698-3 0  9990,2 52105  53.2174 271.4871 0002436  28.1344 331.9780 15.08829972 44824,6917.911,95.438,541.461,538.091,0.0
52105.0,STARLINK-3706,PAYLOAD,2022-12-30 11:14:07,15.08834621,0.0002333,53.2178,270.0006,34.3204,325.7938,0.00011859,1.599e-05,0.0,0 STARLINK-3706,1 52105U 22029T   22364.46813932  .00001599  00000-0  11859-3 0  9992,2 52105  53.2178 270.0006 0002333  34.3204 325.7938 15.08834621 44871,6917.897,95.438,541.376,538.148,0.0
52105.0,STARLINK-3706,PAYLOAD,2022-12-31 03:07:58,15.08853656,0.0002407,53.2179,267.0256,37.8027,322.3134,0.00059963,9.271e-05,0.0,0 STARLINK-3706,1 52105U 22029T   22365.13053283  .00009271  00000-0  59963-3 0  9995,2 52105  53.2179 267.0256 0002407  37.8027 322.3134 15.08853656 44979,6917.839,95.437,541.369,538.039,0.0
52105.0,STARLINK-3706,PAYLOAD,2022-12-31 11:04:53,15.08863036,0.0002441999999999,53.2166,265.5397,34.9874,325.1278,0.00074166,0.00011543,0.0,0 STARLINK-3706,1 52105U 22029T   22365.46172732  .00011543  00000-0  74166-3 0  9999,2 52105  53.2166 265.5397 0002442  34.9874 325.1278 15.08863036 45021,6917.81,95.436,541.364,537.986,0.0
52105.0,STARLINK-3706,PAYLOAD,2022-12-31 17:26:25,15.08865653,0.000246,53.2175,264.3499,42.4644,317.6539,0.00059469,9.196e-05,0.0,0 STARLINK-3706,1 52105U 22029T   22365.72668650  .00009196  00000-0  59469-3 0  9997,2 52105  53.2175 264.3499 0002460  42.4644 317.6539 15.08865653 45067,6917.802,95.436,541.369,537.965,0.0
52105.0,STARLINK-3706,PAYLOAD,2023-01-01 02:58:44,15.08848712,0.0002411,53.2159,262.5679,29.1901,330.9225,3.3765e-05,2.49e-06,0.0,0 STARLINK-3706,1 52105U 22029T   23001.12412888  .00000249  00000-0  33765-4 0  9991,2 52105  53.2159 262.5679 0002411  29.1901 330.9225 15.08848712 45127,6917.854,95.437,541.387,538.0509999999998,0.0
52105.0,STARLINK-3706,PAYLOAD,2023-01-01 10:55:41,15.08832596,0.0002218999999999,53.2153,261.0776,36.3975,323.7168,-0.00024925,-4.252e-05,0.0,0 STARLINK-3706,1 52105U 22029T   23001.45533565 -.00004252  00000-0 -24925-3 0  9990,2 52105  53.2153 261.0776 0002219  36.3975 323.7168 15.08832596 45174,6917.903,95.438,541.303,538.2330000000002,0.0
52105.0,STARLINK-3706,PAYLOAD,2023-01-01 20:28:00,15.08821336,0.0002467,53.2157,259.2952,37.9846,322.132,-0.00045614,-7.537e-05,0.0,0 STARLINK-3706,1 52105U 22029T   23001.85278336 -.00007537  00000-0 -45614-3 0  9993,2 52105  53.2157 259.2952 0002467  37.9846 322.1320 15.08821336 45232,6917.937,95.439,541.509,538.096,0.0
52105.0,STARLINK-3706,PAYLOAD,2023-01-02 02:49:33,15.08829023,0.0002343,53.2168,258.1052,34.6192,325.4952,-0.00028339,-4.794e-05,0.0,0 STARLINK-3706,1 52105U 22029T   23002.11774509 -.00004794  00000-0 -28339-3 0  9993,2 52105  53.2168 258.1052 0002343  34.6192 325.4952 15.08829023 45276,6917.9140000000025,95.438,541.4,538.158,0.0
52105.0,STARLINK-3706,PAYLOAD,2023-01-02 20:18:48,15.08832029,0.000226,53.2167,254.8348,29.4573,330.6546,0.00026433,3.92e-05,0.0,0 STARLINK-3706,1 52105U 22029T   23002.84638929  .00003920  00000-0  26433-3 0  9999,2 52105  53.2167 254.8348 0002260  29.4573 330.6546 15.08832029 45388,6917.905,95.438,541.3330000000002,538.206,0.0
52105.0,STARLINK-3706,PAYLOAD,2023-01-02 23:29:34,15.08836275,0.0002381,53.2164,254.2408,33.0475,327.0666,0.00031751,4.768e-05,0.0,0 STARLINK-3706,1 52105U 22029T   23002.97886931  .00004768  00000-0  31751-3 0  9991,2 52105  53.2164 254.2408 0002381  33.0475 327.0666 15.08836275 45405,6917.892,95.438,541.404,538.11,0.0
52105.0,STARLINK-3706,PAYLOAD,2023-01-03 12:12:39,15.08856648,0.0002399999999999,53.2165,251.8615,32.823,327.2911,0.00079944,0.00012464,0.0,0 STARLINK-3706,1 52105U 22029T   23003.50878816  .00012464  00000-0  79944-3 0  9992,2 52105  53.2165 251.8615 0002400  32.8230 327.2911 15.08856648 45486,6917.83,95.437,541.355,538.034,0.0
52105.0,STARLINK-3706,PAYLOAD,2023-01-04 02:31:07,15.08836234,0.0002411,53.2166,249.1856,32.8551,327.259,-0.00016961,-2.987e-05,0.0,0 STARLINK-3706,1 52105U 22029T   23004.10495090 -.00002987  00000-0 -16961-3 0  9999,2 52105  53.2166 249.1856 0002411  32.8551 327.2590 15.08836234 45574,6917.892,95.438,541.425,538.089,0.0
52105.0,STARLINK-3706,PAYLOAD,2023-01-04 08:52:40,15.08846191,0.0002305,53.2167,247.9961,35.2634,324.851,0.00023907,3.519e-05,0.0,0 STARLINK-3706,1 52105U 22029T   23004.36990958  .00003519  00000-0  23907-3 0  9998,2 52105  53.2167 247.9961 0002305  35.2634 324.8510 15.08846191 45612,6917.861,95.437,541.321,538.132,0.0
52105.0,STARLINK-3706,PAYLOAD,2023-01-05 08:43:26,15.08869576,0.0002302,53.216,243.5359,33.9407,326.1732,0.0007038,0.0001094,0.0,0 STARLINK-3706,1 52105U 22029T   23005.36349633  .00010940  00000-0  70380-3 0  9990,2 52105  53.2160 243.5359 0002302  33.9407 326.1732 15.08869576 45767,6917.79,95.436,541.247,538.063,0.0
52105.0,STARLINK-3706,PAYLOAD,2023-01-06 14:55:45,15.08845747,0.0002612,53.215,237.8849,35.5787,324.5379,-0.0001239,-2.26e-05,0.0,0 STARLINK-3706,1 52105U 22029T   23006.62205024 -.00002260  00000-0 -12390-3 0  9990,2 52105  53.2150 237.8849 0002612  35.5787 324.5379 15.08845747 45953,6917.863,95.437,541.535,537.9209999999998,0.0
52105.0,STARLINK-3706,PAYLOAD,2023-01-07 00:28:04,15.0883925,0.0002378,53.2148,236.1004,30.3306,329.7823,-7.5798e-06,-4.09e-06,0.0,0 STARLINK-3706,1 52105U 22029T   23007.01949208 -.00000409  00000-0 -75798-5 0  9999,2 52105  53.2148 236.1004 0002378  30.3306 329.7823 15.08839250 46015,6917.883000000002,95.438,541.393,538.1030000000002,0.0
52105.0,STARLINK-3706,PAYLOAD,2023-01-07 08:25:00,15.08825779,0.0002343,53.2151,234.6141,29.5482,330.5642,-0.0001109,-2.052e-05,0.0,0 STARLINK-3706,1 52105U 22029T   23007.35069881 -.00002052  00000-0 -11090-3 0  9995,2 52105  53.2151 234.6141 0002343  29.5482 330.5642 15.08825779 46066,6917.924,95.438,541.41,538.168,0.0
52105.0,STARLINK-3706,PAYLOAD,2023-01-07 21:08:06,15.08823553,0.0002378,53.2139,232.2344,28.4489,331.6633,9.6827e-05,1.252e-05,0.0,0 STARLINK-3706,1 52105U 22029T   23007.88062597  .00001252  00000-0  96827-4 0  9991,2 52105  53.2139 232.2344 0002378  28.4489 331.6633 15.08823553 46143,6917.931,95.439,541.441,538.151,0.0
52105.0,STARLINK-3706,PAYLOAD,2023-01-08 08:15:48,15.08836008,0.0002483,53.2149,230.1536,33.029,327.0856,0.00033116,4.986e-05,0.0,0 STARLINK-3706,1 52105U 22029T   23008.34430690  .00004986  00000-0  33116-3 0  9994,2 52105  53.2149 230.1536 0002483  33.0290 327.0856 15.08836008 46216,6917.893,95.438,541.475,538.04,0.0
52105.0,STARLINK-3706,PAYLOAD,2023-01-08 17:48:06,15.08844553,0.0002625,53.2151,228.3695,32.8705,327.245,0.00052166,8.025e-05,0.0,0 STARLINK-3706,1 52105U 22029T   23008.74174653  .00008025  00000-0  52166-3 0  9996,2 52105  53.2151 228.3695 0002625  32.8705 327.2450 15.08844553 46272,6917.866,95.437,541.547,537.9159999999998,0.0
52105.0,STARLINK-3706,PAYLOAD,2023-01-09 14:28:07,15.08843843,0.0002723,53.2152,224.504,33.6681,326.4484,0.00022694,3.326e-05,0.0,0 STARLINK-3706,1 52105U 22029T   23009.60286750  .00003326  00000-0  22694-3 0  9996,2 52105  53.2152 224.5040 0002723  33.6681 326.4484 15.08843843 46400,6917.8690000000015,95.437,541.617,537.85,0.0
52105.0,STARLINK-3706,PAYLOAD,2023-01-10 14:18:54,15.0884116,0.0002468,53.2141,220.0404,54.1201,306.002,6.4409e-05,7.37e-06,0.0,0 STARLINK-3706,1 52105U 22029T   23010.59646620  .00000737  00000-0  64409-4 0  9996,2 52105  53.2141 220.0404 0002468  54.1201 306.0020 15.08841160 46551,6917.877,95.437,541.4490000000002,538.035,0.0
52105.0,STARLINK-3706,PAYLOAD,2023-01-10 22:15:50,15.08833528,0.0002164,53.2175,218.5534,26.5588,333.5515,1.6153e-05,-3.1e-07,0.0,0 STARLINK-3706,1 52105U 22029T   23010.92767121 -.00000031  00000-0  16153-4 0  9994,2 52105  53.2175 218.5534 0002164  26.5588 333.5515 15.08833528 46607,6917.9,95.438,541.262,538.268,0.0
